{
"type": "FeatureCollection",
"name": "涉事保护区",
"crs": { "type": "name", "properties": { "name": "urn:ogc:def:crs:OGC:1.3:CRS84" } },
"features": [
{ "type": "Feature", "properties": { "级别": "国家级", "类型": "森林生态", "排列": null, "始建时间": "19650909", "行政区域": "太白县、眉县、周至县", "序号": "陕16", "主管部门": "林业", "主保护对象": "森林生态系统、大熊猫、金", "面积": "56325", "保护区名称": "陕西太白山", "name": "陕西太白山", "province": "陕西省", "code": "61111002", "level": "国家级", "type": "森林生态", "dept": "林业部门", "city": "陕西省", "adminarea": "太白县、眉县、周至县", "protect": "森林生态系统、大熊猫、金丝猴、扭角羚、羚牛等濒危动物\r\n", "area": "56325.0", "years": "19650909", "标准": null }, "geometry": { "type": "MultiPolygon", "coordinates": [ [ [ [ 107.721624, 34.085597, 0.0 ], [ 107.728037, 34.084689, 0.0 ], [ 107.731509, 34.086362, 0.0 ], [ 107.73354, 34.088175, 0.0 ], [ 107.736282, 34.087567, 0.0 ], [ 107.735026, 34.081251, 0.0 ], [ 107.733334, 34.077677, 0.0 ], [ 107.731634, 34.073888, 0.0 ], [ 107.730233, 34.071184, 0.0 ], [ 107.728693, 34.068265, 0.0 ], [ 107.728346, 34.065702, 0.0 ], [ 107.728176, 34.064446, 0.0 ], [ 107.732493, 34.063805, 0.0 ], [ 107.7367, 34.06382, 0.0 ], [ 107.739011, 34.066174, 0.0 ], [ 107.740657, 34.068327, 0.0 ], [ 107.746071, 34.06908, 0.0 ], [ 107.749731, 34.068451, 0.0 ], [ 107.751872, 34.06556, 0.0 ], [ 107.754546, 34.058827, 0.0 ], [ 107.755299, 34.053667, 0.0 ], [ 107.753702, 34.048999, 0.0 ], [ 107.752134, 34.045207, 0.0 ], [ 107.750545, 34.040757, 0.0 ], [ 107.751805, 34.039089, 0.0 ], [ 107.753374, 34.038835, 0.0 ], [ 107.758619, 34.038497, 0.0 ], [ 107.763559, 34.036856, 0.0 ], [ 107.767281, 34.034146, 0.0 ], [ 107.771657, 34.031312, 0.0 ], [ 107.774048, 34.028086, 0.0 ], [ 107.775254, 34.024777, 0.0 ], [ 107.775686, 34.021924, 0.0 ], [ 107.77604, 34.016665, 0.0 ], [ 107.778009, 34.012572, 0.0 ], [ 107.778913, 34.008066, 0.0 ], [ 107.778771, 34.003695, 0.0 ], [ 107.782466, 34.00022, 0.0 ], [ 107.785604, 33.995772, 0.0 ], [ 107.787452, 33.992011, 0.0 ], [ 107.788644, 33.989961, 0.0 ], [ 107.789192, 33.989018, 0.0 ], [ 107.792767, 33.989921, 0.0 ], [ 107.798951, 33.994266, 0.0 ], [ 107.804024, 33.996777, 0.0 ], [ 107.810232, 33.997838, 0.0 ], [ 107.811391, 33.997472, 0.0 ], [ 107.815821, 33.996068, 0.0 ], [ 107.821374, 33.993208, 0.0 ], [ 107.827298, 33.98968, 0.0 ], [ 107.827204, 33.986839, 0.0 ], [ 107.828538, 33.983526, 0.0 ], [ 107.831604, 33.980939, 0.0 ], [ 107.83569, 33.977454, 0.0 ], [ 107.838941, 33.976503, 0.0 ], [ 107.842732, 33.975978, 0.0 ], [ 107.845461, 33.975149, 0.0 ], [ 107.8481, 33.971587, 0.0 ], [ 107.850457, 33.967487, 0.0 ], [ 107.852797, 33.962837, 0.0 ], [ 107.856338, 33.958817, 0.0 ], [ 107.859128, 33.955909, 0.0 ], [ 107.860221, 33.953257, 0.0 ], [ 107.860588, 33.948545, 0.0 ], [ 107.857878, 33.945983, 0.0 ], [ 107.853593, 33.943456, 0.0 ], [ 107.850183, 33.939597, 0.0 ], [ 107.848482, 33.935809, 0.0 ], [ 107.844599, 33.933491, 0.0 ], [ 107.841139, 33.932041, 0.0 ], [ 107.837438, 33.931251, 0.0 ], [ 107.833705, 33.929478, 0.0 ], [ 107.830456, 33.926489, 0.0 ], [ 107.829196, 33.924112, 0.0 ], [ 107.829368, 33.921373, 0.0 ], [ 107.827719, 33.919113, 0.0 ], [ 107.823454, 33.917134, 0.0 ], [ 107.819016, 33.913843, 0.0 ], [ 107.817877, 33.911134, 0.0 ], [ 107.816833, 33.907331, 0.0 ], [ 107.817764, 33.903698, 0.0 ], [ 107.818031, 33.899865, 0.0 ], [ 107.820672, 33.896412, 0.0 ], [ 107.820153, 33.892596, 0.0 ], [ 107.820707, 33.889519, 0.0 ], [ 107.820621, 33.886897, 0.0 ], [ 107.817059, 33.882275, 0.0 ], [ 107.814832, 33.878388, 0.0 ], [ 107.813414, 33.877037, 0.0 ], [ 107.811737, 33.87544, 0.0 ], [ 107.810906, 33.874648, 0.0 ], [ 107.809882, 33.875437, 0.0 ], [ 107.806094, 33.879898, 0.0 ], [ 107.800679, 33.882756, 0.0 ], [ 107.796794, 33.884269, 0.0 ], [ 107.786638, 33.886576, 0.0 ], [ 107.781137, 33.886811, 0.0 ], [ 107.777098, 33.887668, 0.0 ], [ 107.773513, 33.890373, 0.0 ], [ 107.770718, 33.889123, 0.0 ], [ 107.767824, 33.884813, 0.0 ], [ 107.765632, 33.881909, 0.0 ], [ 107.762926, 33.879345, 0.0 ], [ 107.758421, 33.873865, 0.0 ], [ 107.754828, 33.868149, 0.0 ], [ 107.752388, 33.865687, 0.0 ], [ 107.747405, 33.865688, 0.0 ], [ 107.74325, 33.866984, 0.0 ], [ 107.739264, 33.869481, 0.0 ], [ 107.735389, 33.871318, 0.0 ], [ 107.73172, 33.871399, 0.0 ], [ 107.728529, 33.870046, 0.0 ], [ 107.723807, 33.865886, 0.0 ], [ 107.722771, 33.862189, 0.0 ], [ 107.723556, 33.858013, 0.0 ], [ 107.723949, 33.853848, 0.0 ], [ 107.721358, 33.850733, 0.0 ], [ 107.718406, 33.848611, 0.0 ], [ 107.717134, 33.845685, 0.0 ], [ 107.71723, 33.840432, 0.0 ], [ 107.716416, 33.835417, 0.0 ], [ 107.714809, 33.830201, 0.0 ], [ 107.712888, 33.827508, 0.0 ], [ 107.710341, 33.825705, 0.0 ], [ 107.707863, 33.826089, 0.0 ], [ 107.70627, 33.829623, 0.0 ], [ 107.704295, 33.833496, 0.0 ], [ 107.701992, 33.835297, 0.0 ], [ 107.700768, 33.838059, 0.0 ], [ 107.699185, 33.841921, 0.0 ], [ 107.699261, 33.844328, 0.0 ], [ 107.700623, 33.845938, 0.0 ], [ 107.702553, 33.84896, 0.0 ], [ 107.702143, 33.852578, 0.0 ], [ 107.700812, 33.856108, 0.0 ], [ 107.699191, 33.858768, 0.0 ], [ 107.699243, 33.860409, 0.0 ], [ 107.702432, 33.865917, 0.0 ], [ 107.703464, 33.869506, 0.0 ], [ 107.702618, 33.87182, 0.0 ], [ 107.700428, 33.873074, 0.0 ], [ 107.698649, 33.874861, 0.0 ], [ 107.698697, 33.876392, 0.0 ], [ 107.701311, 33.880273, 0.0 ], [ 107.703249, 33.883512, 0.0 ], [ 107.703208, 33.886359, 0.0 ], [ 107.70198, 33.88901, 0.0 ], [ 107.700503, 33.887948, 0.0 ], [ 107.698876, 33.886235, 0.0 ], [ 107.695188, 33.885769, 0.0 ], [ 107.691784, 33.885951, 0.0 ], [ 107.68938, 33.884582, 0.0 ], [ 107.685965, 33.884438, 0.0 ], [ 107.682339, 33.885939, 0.0 ], [ 107.678831, 33.887, 0.0 ], [ 107.674784, 33.887635, 0.0 ], [ 107.673, 33.889314, 0.0 ], [ 107.67085, 33.891877, 0.0 ], [ 107.668424, 33.894009, 0.0 ], [ 107.666302, 33.893289, 0.0 ], [ 107.664019, 33.891588, 0.0 ], [ 107.660819, 33.889907, 0.0 ], [ 107.655545, 33.889036, 0.0 ], [ 107.652503, 33.888228, 0.0 ], [ 107.650344, 33.886305, 0.0 ], [ 107.644637, 33.88413, 0.0 ], [ 107.639504, 33.883582, 0.0 ], [ 107.635475, 33.884763, 0.0 ], [ 107.631219, 33.887152, 0.0 ], [ 107.626901, 33.887463, 0.0 ], [ 107.625512, 33.884976, 0.0 ], [ 107.625284, 33.881809, 0.0 ], [ 107.623896, 33.879322, 0.0 ], [ 107.62114, 33.87927, 0.0 ], [ 107.616841, 33.880238, 0.0 ], [ 107.612976, 33.882508, 0.0 ], [ 107.609993, 33.887931, 0.0 ], [ 107.60929, 33.890681, 0.0 ], [ 107.608548, 33.896495, 0.0 ], [ 107.606399, 33.899166, 0.0 ], [ 107.603774, 33.899113, 0.0 ], [ 107.602245, 33.8963, 0.0 ], [ 107.601215, 33.892602, 0.0 ], [ 107.599145, 33.889255, 0.0 ], [ 107.596336, 33.887456, 0.0 ], [ 107.593059, 33.887525, 0.0 ], [ 107.589622, 33.890988, 0.0 ], [ 107.586273, 33.893027, 0.0 ], [ 107.580937, 33.894453, 0.0 ], [ 107.577453, 33.896384, 0.0 ], [ 107.575283, 33.898399, 0.0 ], [ 107.571721, 33.897707, 0.0 ], [ 107.56883, 33.897549, 0.0 ], [ 107.565286, 33.897515, 0.0 ], [ 107.560566, 33.897613, 0.0 ], [ 107.555964, 33.897269, 0.0 ], [ 107.552946, 33.897224, 0.0 ], [ 107.549176, 33.898395, 0.0 ], [ 107.54654, 33.898012, 0.0 ], [ 107.54284, 33.897104, 0.0 ], [ 107.539319, 33.897832, 0.0 ], [ 107.537808, 33.899943, 0.0 ], [ 107.536968, 33.902585, 0.0 ], [ 107.535475, 33.905351, 0.0 ], [ 107.532721, 33.905408, 0.0 ], [ 107.527566, 33.904092, 0.0 ], [ 107.524153, 33.904054, 0.0 ], [ 107.520488, 33.904347, 0.0 ], [ 107.515803, 33.905646, 0.0 ], [ 107.510564, 33.905972, 0.0 ], [ 107.505322, 33.906189, 0.0 ], [ 107.501561, 33.907687, 0.0 ], [ 107.498743, 33.91004, 0.0 ], [ 107.496591, 33.912711, 0.0 ], [ 107.494044, 33.915387, 0.0 ], [ 107.49183, 33.91598, 0.0 ], [ 107.489041, 33.914833, 0.0 ], [ 107.486342, 33.912263, 0.0 ], [ 107.482347, 33.910264, 0.0 ], [ 107.477592, 33.909157, 0.0 ], [ 107.471132, 33.908083, 0.0 ], [ 107.463869, 33.906478, 0.0 ], [ 107.457549, 33.905728, 0.0 ], [ 107.45304, 33.904067, 0.0 ], [ 107.448656, 33.902186, 0.0 ], [ 107.443883, 33.900422, 0.0 ], [ 107.438519, 33.900965, 0.0 ], [ 107.433848, 33.902808, 0.0 ], [ 107.432892, 33.90611, 0.0 ], [ 107.432239, 33.910827, 0.0 ], [ 107.43236, 33.91509, 0.0 ], [ 107.429952, 33.918093, 0.0 ], [ 107.428953, 33.919861, 0.0 ], [ 107.428878, 33.921834, 0.0 ], [ 107.428674, 33.923916, 0.0 ], [ 107.427774, 33.929185, 0.0 ], [ 107.424625, 33.933841, 0.0 ], [ 107.419473, 33.937336, 0.0 ], [ 107.41628, 33.94046, 0.0 ], [ 107.412355, 33.945571, 0.0 ], [ 107.4086, 33.947395, 0.0 ], [ 107.401601, 33.950596, 0.0 ], [ 107.395703, 33.955634, 0.0 ], [ 107.392045, 33.95625, 0.0 ], [ 107.388395, 33.957197, 0.0 ], [ 107.386267, 33.956254, 0.0 ], [ 107.384117, 33.954435, 0.0 ], [ 107.381635, 33.954922, 0.0 ], [ 107.381037, 33.957011, 0.0 ], [ 107.3787, 33.957933, 0.0 ], [ 107.373433, 33.957377, 0.0 ], [ 107.371058, 33.957821, 0.0 ], [ 107.371015, 33.960158, 0.0 ], [ 107.372376, 33.961883, 0.0 ], [ 107.37537, 33.965655, 0.0 ], [ 107.375848, 33.968708, 0.0 ], [ 107.375338, 33.97397, 0.0 ], [ 107.376434, 33.975591, 0.0 ], [ 107.380435, 33.97781, 0.0 ], [ 107.383008, 33.980605, 0.0 ], [ 107.383637, 33.984313, 0.0 ], [ 107.385091, 33.989318, 0.0 ], [ 107.387936, 33.992435, 0.0 ], [ 107.390003, 33.995896, 0.0 ], [ 107.394263, 33.997891, 0.0 ], [ 107.397963, 33.998695, 0.0 ], [ 107.400054, 33.998325, 0.0 ], [ 107.405253, 33.996363, 0.0 ], [ 107.408763, 33.995091, 0.0 ], [ 107.410976, 33.994392, 0.0 ], [ 107.41271, 33.990638, 0.0 ], [ 107.415923, 33.988169, 0.0 ], [ 107.42012, 33.987976, 0.0 ], [ 107.424721, 33.988104, 0.0 ], [ 107.42698, 33.989044, 0.0 ], [ 107.430334, 33.991494, 0.0 ], [ 107.432537, 33.995062, 0.0 ], [ 107.435628, 33.997515, 0.0 ], [ 107.438288, 33.998668, 0.0 ], [ 107.439788, 33.996011, 0.0 ], [ 107.44366, 33.993636, 0.0 ], [ 107.446254, 33.992492, 0.0 ], [ 107.449824, 33.993295, 0.0 ], [ 107.451862, 33.995663, 0.0 ], [ 107.453706, 33.995845, 0.0 ], [ 107.456028, 33.994374, 0.0 ], [ 107.459813, 33.993535, 0.0 ], [ 107.464702, 33.99453, 0.0 ], [ 107.468703, 33.996637, 0.0 ], [ 107.472998, 33.999833, 0.0 ], [ 107.475607, 34.003719, 0.0 ], [ 107.477605, 34.004663, 0.0 ], [ 107.481172, 34.005358, 0.0 ], [ 107.485043, 34.007467, 0.0 ], [ 107.487067, 34.009287, 0.0 ], [ 107.489455, 34.010113, 0.0 ], [ 107.493349, 34.008502, 0.0 ], [ 107.496737, 34.007559, 0.0 ], [ 107.498517, 34.005554, 0.0 ], [ 107.502225, 34.002088, 0.0 ], [ 107.506387, 34.000689, 0.0 ], [ 107.511552, 34.002116, 0.0 ], [ 107.512539, 34.004392, 0.0 ], [ 107.514733, 34.007521, 0.0 ], [ 107.519021, 34.010387, 0.0 ], [ 107.522857, 34.011293, 0.0 ], [ 107.525662, 34.00839, 0.0 ], [ 107.52883, 34.004497, 0.0 ], [ 107.530397, 33.99976, 0.0 ], [ 107.532433, 33.997529, 0.0 ], [ 107.536397, 33.998323, 0.0 ], [ 107.540666, 34.000533, 0.0 ], [ 107.544935, 34.002741, 0.0 ], [ 107.549076, 34.005063, 0.0 ], [ 107.553428, 34.005628, 0.0 ], [ 107.559762, 34.006592, 0.0 ], [ 107.565069, 34.00834, 0.0 ], [ 107.569743, 34.010867, 0.0 ], [ 107.574345, 34.010991, 0.0 ], [ 107.581212, 34.012158, 0.0 ], [ 107.587379, 34.011921, 0.0 ], [ 107.594595, 34.011658, 0.0 ], [ 107.599227, 34.012763, 0.0 ], [ 107.603094, 34.014651, 0.0 ], [ 107.607178, 34.015003, 0.0 ], [ 107.610978, 34.014702, 0.0 ], [ 107.61519, 34.014941, 0.0 ], [ 107.617445, 34.015659, 0.0 ], [ 107.622821, 34.015326, 0.0 ], [ 107.626895, 34.015349, 0.0 ], [ 107.629193, 34.013221, 0.0 ], [ 107.630583, 34.011441, 0.0 ], [ 107.633152, 34.009525, 0.0 ], [ 107.634727, 34.009491, 0.0 ], [ 107.637645, 34.010415, 0.0 ], [ 107.641217, 34.011213, 0.0 ], [ 107.644781, 34.011792, 0.0 ], [ 107.648788, 34.013893, 0.0 ], [ 107.651808, 34.013828, 0.0 ], [ 107.655466, 34.013204, 0.0 ], [ 107.658808, 34.010833, 0.0 ], [ 107.660895, 34.010351, 0.0 ], [ 107.660939, 34.011772, 0.0 ], [ 107.660776, 34.014947, 0.0 ], [ 107.6615, 34.017119, 0.0 ], [ 107.663875, 34.017433, 0.0 ], [ 107.665062, 34.017589, 0.0 ], [ 107.673063, 34.017197, 0.0 ], [ 107.677786, 34.016984, 0.0 ], [ 107.682927, 34.01753, 0.0 ], [ 107.687691, 34.018629, 0.0 ], [ 107.691498, 34.018545, 0.0 ], [ 107.696065, 34.017569, 0.0 ], [ 107.698183, 34.01807, 0.0 ], [ 107.697706, 34.019612, 0.0 ], [ 107.697375, 34.021588, 0.0 ], [ 107.696518, 34.023576, 0.0 ], [ 107.694342, 34.025374, 0.0 ], [ 107.693478, 34.027144, 0.0 ], [ 107.69488, 34.029958, 0.0 ], [ 107.696975, 34.03385, 0.0 ], [ 107.69543, 34.034869, 0.0 ], [ 107.691249, 34.035616, 0.0 ], [ 107.687396, 34.038435, 0.0 ], [ 107.681476, 34.042394, 0.0 ], [ 107.679751, 34.046041, 0.0 ], [ 107.678676, 34.049455, 0.0 ], [ 107.680227, 34.052814, 0.0 ], [ 107.682024, 34.055618, 0.0 ], [ 107.683959, 34.05864, 0.0 ], [ 107.685131, 34.062442, 0.0 ], [ 107.684295, 34.065087, 0.0 ], [ 107.684401, 34.068475, 0.0 ], [ 107.685048, 34.07229, 0.0 ], [ 107.687706, 34.073217, 0.0 ], [ 107.688761, 34.074431, 0.0 ], [ 107.689479, 34.075255, 0.0 ], [ 107.690883, 34.07807, 0.0 ], [ 107.692702, 34.081531, 0.0 ], [ 107.69878, 34.08249, 0.0 ], [ 107.700837, 34.08518, 0.0 ], [ 107.702639, 34.088093, 0.0 ], [ 107.706757, 34.089424, 0.0 ], [ 107.709666, 34.090597, 0.0 ], [ 107.71062, 34.090981, 0.0 ], [ 107.71247, 34.091267, 0.0 ], [ 107.71442, 34.090568, 0.0 ], [ 107.717489, 34.087876, 0.0 ], [ 107.721624, 34.085597, 0.0 ] ] ] ] } },
{ "type": "Feature", "properties": { "级别": "国家级", "类型": "野生动物", "排列": null, "始建时间": "19880509", "行政区域": "柞水县、西安市长安", "序号": "陕57", "主管部门": "林业", "主保护对象": "扭角羚等珍稀动物及其栖息地", "面积": "16418", "保护区名称": "牛背梁", "name": "陕西牛背梁", "province": "陕西省", "code": "61611001", "level": "国家级", "type": "野生动物", "dept": "林业部门", "city": "陕西省", "adminarea": "柞水县、西安市长安区、宁陕县", "protect": "扭角羚等珍稀动物及其栖息地\r\n羚牛及其栖息地", "area": "16418.0", "years": "19880509", "标准": null }, "geometry": { "type": "MultiPolygon", "coordinates": [ [ [ [ 108.870174, 33.793372, 0.0 ], [ 108.86639, 33.793738, 0.0 ], [ 108.862789, 33.791175, 0.0 ], [ 108.858821, 33.789344, 0.0 ], [ 108.857601, 33.784949, 0.0 ], [ 108.859188, 33.782141, 0.0 ], [ 108.857601, 33.777564, 0.0 ], [ 108.853389, 33.774939, 0.0 ], [ 108.850582, 33.775794, 0.0 ], [ 108.847774, 33.777991, 0.0 ], [ 108.844417, 33.777991, 0.0 ], [ 108.841609, 33.777137, 0.0 ], [ 108.836605, 33.777137, 0.0 ], [ 108.831783, 33.777991, 0.0 ], [ 108.828365, 33.779395, 0.0 ], [ 108.825801, 33.781958, 0.0 ], [ 108.823787, 33.784949, 0.0 ], [ 108.822017, 33.787391, 0.0 ], [ 108.818965, 33.787574, 0.0 ], [ 108.813777, 33.785559, 0.0 ], [ 108.807003, 33.786353, 0.0 ], [ 108.7998, 33.785987, 0.0 ], [ 108.793392, 33.784949, 0.0 ], [ 108.789363, 33.784583, 0.0 ], [ 108.78741, 33.786963, 0.0 ], [ 108.78442, 33.787574, 0.0 ], [ 108.782772, 33.790992, 0.0 ], [ 108.781978, 33.795935, 0.0 ], [ 108.780391, 33.800147, 0.0 ], [ 108.780818, 33.803138, 0.0 ], [ 108.783992, 33.805335, 0.0 ], [ 108.789363, 33.808936, 0.0 ], [ 108.796016, 33.813575, 0.0 ], [ 108.801021, 33.816382, 0.0 ], [ 108.800594, 33.819373, 0.0 ], [ 108.797969, 33.822364, 0.0 ], [ 108.794795, 33.824195, 0.0 ], [ 108.790218, 33.823951, 0.0 ], [ 108.786983, 33.821143, 0.0 ], [ 108.784786, 33.817969, 0.0 ], [ 108.783016, 33.814368, 0.0 ], [ 108.781612, 33.811194, 0.0 ], [ 108.779781, 33.808753, 0.0 ], [ 108.775386, 33.808387, 0.0 ], [ 108.770198, 33.812537, 0.0 ], [ 108.76678, 33.811744, 0.0 ], [ 108.764766, 33.809546, 0.0 ], [ 108.760189, 33.808753, 0.0 ], [ 108.755184, 33.812781, 0.0 ], [ 108.751766, 33.815772, 0.0 ], [ 108.750606, 33.82035, 0.0 ], [ 108.750972, 33.825171, 0.0 ], [ 108.75201, 33.828772, 0.0 ], [ 108.755001, 33.83335, 0.0 ], [ 108.756771, 33.835975, 0.0 ], [ 108.761592, 33.836158, 0.0 ], [ 108.768367, 33.838782, 0.0 ], [ 108.773372, 33.84458, 0.0 ], [ 108.777584, 33.849158, 0.0 ], [ 108.779415, 33.85337, 0.0 ], [ 108.781612, 33.856971, 0.0 ], [ 108.786006, 33.857581, 0.0 ], [ 108.789974, 33.856787, 0.0 ], [ 108.791194, 33.85337, 0.0 ], [ 108.793575, 33.849341, 0.0 ], [ 108.797603, 33.847144, 0.0 ], [ 108.804195, 33.846595, 0.0 ], [ 108.807003, 33.843543, 0.0 ], [ 108.810176, 33.838355, 0.0 ], [ 108.814571, 33.833777, 0.0 ], [ 108.821407, 33.829383, 0.0 ], [ 108.826168, 33.828589, 0.0 ], [ 108.828609, 33.826575, 0.0 ], [ 108.828975, 33.82096, 0.0 ], [ 108.832393, 33.818763, 0.0 ], [ 108.836605, 33.817969, 0.0 ], [ 108.838985, 33.82096, 0.0 ], [ 108.843013, 33.823767, 0.0 ], [ 108.847774, 33.824988, 0.0 ], [ 108.848567, 33.828772, 0.0 ], [ 108.848201, 33.834143, 0.0 ], [ 108.848384, 33.838782, 0.0 ], [ 108.851375, 33.839148, 0.0 ], [ 108.856014, 33.838355, 0.0 ], [ 108.862178, 33.836768, 0.0 ], [ 108.865779, 33.84159, 0.0 ], [ 108.868404, 33.844764, 0.0 ], [ 108.872371, 33.844336, 0.0 ], [ 108.876766, 33.84159, 0.0 ], [ 108.881587, 33.84574, 0.0 ], [ 108.886592, 33.847571, 0.0 ], [ 108.89117, 33.849585, 0.0 ], [ 108.897212, 33.849952, 0.0 ], [ 108.893978, 33.853553, 0.0 ], [ 108.893978, 33.858985, 0.0 ], [ 108.898616, 33.863746, 0.0 ], [ 108.900997, 33.867774, 0.0 ], [ 108.906002, 33.872351, 0.0 ], [ 108.900386, 33.874183, 0.0 ], [ 108.896175, 33.876746, 0.0 ], [ 108.894588, 33.880774, 0.0 ], [ 108.894405, 33.883948, 0.0 ], [ 108.893001, 33.887976, 0.0 ], [ 108.890621, 33.896338, 0.0 ], [ 108.893001, 33.900367, 0.0 ], [ 108.898006, 33.905371, 0.0 ], [ 108.902584, 33.907386, 0.0 ], [ 108.905574, 33.910743, 0.0 ], [ 108.911617, 33.91355, 0.0 ], [ 108.916805, 33.913367, 0.0 ], [ 108.915584, 33.909583, 0.0 ], [ 108.915767, 33.904944, 0.0 ], [ 108.919002, 33.903785, 0.0 ], [ 108.923213, 33.89939, 0.0 ], [ 108.923397, 33.895972, 0.0 ], [ 108.922603, 33.891944, 0.0 ], [ 108.92419, 33.88877, 0.0 ], [ 108.929378, 33.889136, 0.0 ], [ 108.937984, 33.89054, 0.0 ], [ 108.938411, 33.894934, 0.0 ], [ 108.940975, 33.901954, 0.0 ], [ 108.943599, 33.908973, 0.0 ], [ 108.94598, 33.913184, 0.0 ], [ 108.949398, 33.91294, 0.0 ], [ 108.954586, 33.91294, 0.0 ], [ 108.958187, 33.91355, 0.0 ], [ 108.962764, 33.911353, 0.0 ], [ 108.966182, 33.91178, 0.0 ], [ 108.971614, 33.909156, 0.0 ], [ 108.974361, 33.906775, 0.0 ], [ 108.979183, 33.908789, 0.0 ], [ 108.982418, 33.904761, 0.0 ], [ 108.985591, 33.905371, 0.0 ], [ 108.989986, 33.902991, 0.0 ], [ 108.994564, 33.90354, 0.0 ], [ 108.998592, 33.903968, 0.0 ], [ 109.00317, 33.902747, 0.0 ], [ 109.007381, 33.903785, 0.0 ], [ 109.011775, 33.906775, 0.0 ], [ 109.014766, 33.911353, 0.0 ], [ 109.01678, 33.917762, 0.0 ], [ 109.018367, 33.924781, 0.0 ], [ 109.020992, 33.926551, 0.0 ], [ 109.024166, 33.924537, 0.0 ], [ 109.030574, 33.920569, 0.0 ], [ 109.036006, 33.916968, 0.0 ], [ 109.037593, 33.913794, 0.0 ], [ 109.035396, 33.910559, 0.0 ], [ 109.035762, 33.905982, 0.0 ], [ 109.038387, 33.898169, 0.0 ], [ 109.039607, 33.893164, 0.0 ], [ 109.041805, 33.890174, 0.0 ], [ 109.040767, 33.883948, 0.0 ], [ 109.03857, 33.880347, 0.0 ], [ 109.03619, 33.87699, 0.0 ], [ 109.031795, 33.877173, 0.0 ], [ 109.023982, 33.879737, 0.0 ], [ 109.019405, 33.875953, 0.0 ], [ 109.01617, 33.873938, 0.0 ], [ 109.014583, 33.871558, 0.0 ], [ 109.016414, 33.867163, 0.0 ], [ 109.012203, 33.860938, 0.0 ], [ 109.008602, 33.857581, 0.0 ], [ 109.00262, 33.857581, 0.0 ], [ 108.995601, 33.857764, 0.0 ], [ 108.989376, 33.860144, 0.0 ], [ 108.984615, 33.85575, 0.0 ], [ 108.979976, 33.855567, 0.0 ], [ 108.975215, 33.856177, 0.0 ], [ 108.970577, 33.856787, 0.0 ], [ 108.971614, 33.852393, 0.0 ], [ 108.970577, 33.848792, 0.0 ], [ 108.970577, 33.844764, 0.0 ], [ 108.968807, 33.839148, 0.0 ], [ 108.968807, 33.834754, 0.0 ], [ 108.96722, 33.828772, 0.0 ], [ 108.966609, 33.823767, 0.0 ], [ 108.963802, 33.820777, 0.0 ], [ 108.960811, 33.817786, 0.0 ], [ 108.955989, 33.815589, 0.0 ], [ 108.952388, 33.812537, 0.0 ], [ 108.949581, 33.81095, 0.0 ], [ 108.945796, 33.809363, 0.0 ], [ 108.937007, 33.80857, 0.0 ], [ 108.930965, 33.808387, 0.0 ], [ 108.922603, 33.807349, 0.0 ], [ 108.915584, 33.805152, 0.0 ], [ 108.910213, 33.801978, 0.0 ], [ 108.906612, 33.79917, 0.0 ], [ 108.90118, 33.798194, 0.0 ], [ 108.895992, 33.797766, 0.0 ], [ 108.889766, 33.79795, 0.0 ], [ 108.882564, 33.79679, 0.0 ], [ 108.875972, 33.795142, 0.0 ], [ 108.873165, 33.793738, 0.0 ], [ 108.870174, 33.793372, 0.0 ] ] ] ] } }
]
}
